{
    "links": {
        "self": "http://www.neowsapp.com/rest/v1/neo/3715534?api_key=iIulBulltgU6a56xZRHN4H3l9WmuAYTsLGpBGhQ2"
    },
    "id": "3715534",
    "neo_reference_id": "3715534",
    "name": "(2015 GY5)",
    "designation": "2015 GY5",
    "nasa_jpl_url": "http://ssd.jpl.nasa.gov/sbdb.cgi?sstr=3715534",
    "absolute_magnitude_h": 24.4,
    "estimated_diameter": {
        "kilometers": {
            "estimated_diameter_min": 0.0350392641,
            "estimated_diameter_max": 0.0783501764
        },
        "meters": {
            "estimated_diameter_min": 35.0392641108,
            "estimated_diameter_max": 78.3501764334
        },
        "miles": {
            "estimated_diameter_min": 0.0217723826,
            "estimated_diameter_max": 0.0486845275
        },
        "feet": {
            "estimated_diameter_min": 114.9582192654,
            "estimated_diameter_max": 257.0543928497
        }
    },
    "is_potentially_hazardous_asteroid": false,
    "close_approach_data": [
        {
            "close_approach_date": "2015-03-25",
            "close_approach_date_full": "2015-Mar-25 14:59",
            "epoch_date_close_approach": 1427295540000,
            "relative_velocity": {
                "kilometers_per_second": "14.446582973",
                "kilometers_per_hour": "52007.6987029375",
                "miles_per_hour": "32315.5614523891"
            },
            "miss_distance": {
                "astronomical": "0.0221923202",
                "lunar": "8.6328125578",
                "kilometers": "3319923.832277974",
                "miles": "2062905.0112010812"
            },
            "orbiting_body": "Earth"
        }
    ],
    "orbital_data": {
        "orbit_id": "5",
        "orbit_determination_date": "2019-07-17 06:10:36",
        "first_observation_date": "2015-04-10",
        "last_observation_date": "2015-04-15",
        "data_arc_in_days": 5,
        "observations_used": 22,
        "orbit_uncertainty": "9",
        "minimum_orbit_intersection": ".0202266",
        "jupiter_tisserand_invariant": "3.632",
        "epoch_osculation": "2457125.5",
        "eccentricity": ".5954513774920418",
        "semi_major_axis": "1.966840167128417",
        "inclination": "3.525502835605975",
        "ascending_node_longitude": "202.6091351691746",
        "orbital_period": "1007.516182201006",
        "perihelion_distance": ".7956824803051235",
        "perihelion_argument": "277.9021766327604",
        "aphelion_distance": "3.137997853951711",
        "perihelion_time": "2457064.600390480517",
        "mean_anomaly": "21.76030500981067",
        "mean_motion": ".3573143601659566",
        "equinox": "J2000",
        "orbit_class": {
            "orbit_class_type": "APO",
            "orbit_class_description": "Near-Earth asteroid orbits which cross the Earth’s orbit similar to that of 1862 Apollo",
            "orbit_class_range": "a (semi-major axis) > 1.0 AU; q (perihelion) < 1.017 AU"
        }
    },
    "is_sentry_object": false
}